{
  "type": "FeatureCollection",
  "features": [
    {
      "type": "Feature",
      "properties": {
        "norad_id": 28054,
        "name": "DMSP 5D-3 F16 (USA 172)",
        "group": "weather",
        "lat": -44.295052838623945,
        "lon": 18.38267563213742,
        "alt_km": 846.3991954813519,
        "timestamp": "2025-12-17T23:38:06.506994+00:00",
        "meta_object_name": "DMSP 5D-3 F16 (USA 172)",
        "meta_object_id": "2003-048A",
        "meta_epoch": "2025-12-17T15:52:11.898048",
        "meta_mean_motion": 14.14426076,
        "meta_eccentricity": 0.00063476,
        "meta_inclination": 99.0042,
        "meta_ra_of_asc_node": 9.1569,
        "meta_arg_of_pericenter": 305.2658,
        "meta_mean_anomaly": 163.2385,
        "meta_ephemeris_type": 0,
        "meta_classification_type": "U",
        "meta_norad_cat_id": 28054,
        "meta_element_set_no": 999,
        "meta_rev_at_epoch": 14382,
        "meta_bstar": 8.0902423e-05,
        "meta_mean_motion_dot": 1.09e-06,
        "meta_mean_motion_ddot": 0,
        "tle_line1": "1 28054U 03048A   25351.66124882  .00000109  00000+0  80902-4 0  9999",
        "tle_line2": "2 28054  99.0042   9.1569 0006347 305.2658 163.2385 14.14426076143825"
      },
      "geometry": {
        "type": "Point",
        "coordinates": [
          18.38267563213742,
          -44.295052838623945
        ]
      }
    },
    {
      "type": "Feature",
      "properties": {
        "norad_id": 28912,
        "name": "METEOSAT-9 (MSG-2)",
        "group": "weather",
        "lat": 8.48865937697792,
        "lon": 126.91567423939318,
        "alt_km": 35790.017554876475,
        "timestamp": "2025-12-17T23:38:06.507039+00:00",
        "meta_object_name": "METEOSAT-9 (MSG-2)",
        "meta_object_id": "2005-049B",
        "meta_epoch": "2025-12-16T20:25:21.138240",
        "meta_mean_motion": 1.00278778,
        "meta_eccentricity": 0.00033903,
        "meta_inclination": 8.9483,
        "meta_ra_of_asc_node": 55.9385,
        "meta_arg_of_pericenter": 190.7739,
        "meta_mean_anomaly": 191.1196,
        "meta_ephemeris_type": 0,
        "meta_classification_type": "U",
        "meta_norad_cat_id": 28912,
        "meta_element_set_no": 999,
        "meta_rev_at_epoch": 517,
        "meta_bstar": 0,
        "meta_mean_motion_dot": 1.4e-06,
        "meta_mean_motion_ddot": 0,
        "tle_line1": "1 28912U 05049B   25350.85093910  .00000140  00000+0  00000+0 0  9993",
        "tle_line2": "2 28912   8.9483  55.9385 0003390 190.7739 191.1196  1.00278778  5173"
      },
      "geometry": {
        "type": "Point",
        "coordinates": [
          126.91567423939318,
          8.48865937697792
        ]
      }
    },
    {
      "type": "Feature",
      "properties": {
        "norad_id": 29522,
        "name": "DMSP 5D-3 F17 (USA 191)",
        "group": "weather",
        "lat": -79.82924078563852,
        "lon": 118.23970173694367,
        "alt_km": 845.9985178197921,
        "timestamp": "2025-12-17T23:38:06.507056+00:00",
        "meta_object_name": "DMSP 5D-3 F17 (USA 191)",
        "meta_object_id": "2006-050A",
        "meta_epoch": "2025-12-17T13:54:06.632352",
        "meta_mean_motion": 14.14921695,
        "meta_eccentricity": 0.00095924,
        "meta_inclination": 98.7391,
        "meta_ra_of_asc_node": 356.8676,
        "meta_arg_of_pericenter": 210.1798,
        "meta_mean_anomaly": 149.8824,
        "meta_ephemeris_type": 0,
        "meta_classification_type": "U",
        "meta_norad_cat_id": 29522,
        "meta_element_set_no": 999,
        "meta_rev_at_epoch": 98673,
        "meta_bstar": 9.8078561e-05,
        "meta_mean_motion_dot": 1.46e-06,
        "meta_mean_motion_ddot": 0,
        "tle_line1": "1 29522U 06050A   25351.57924343  .00000146  00000+0  98079-4 0  9991",
        "tle_line2": "2 29522  98.7391 356.8676 0009592 210.1798 149.8824 14.14921695986734"
      },
      "geometry": {
        "type": "Point",
        "coordinates": [
          118.23970173694367,
          -79.82924078563852
        ]
      }
    },
    {
      "type": "Feature",
      "properties": {
        "norad_id": 32958,
        "name": "FENGYUN 3A",
        "group": "weather",
        "lat": 63.94450280084209,
        "lon": -86.78340012635918,
        "alt_km": 824.4132696510833,
        "timestamp": "2025-12-17T23:38:06.507070+00:00",
        "meta_object_name": "FENGYUN 3A",
        "meta_object_id": "2008-026A",
        "meta_epoch": "2025-12-17T09:47:42.134784",
        "meta_mean_motion": 14.19516118,
        "meta_eccentricity": 0.00077413,
        "meta_inclination": 98.6701,
        "meta_ra_of_asc_node": 290.8366,
        "meta_arg_of_pericenter": 295.5616,
        "meta_mean_anomaly": 64.476,
        "meta_ephemeris_type": 0,
        "meta_classification_type": "U",
        "meta_norad_cat_id": 32958,
        "meta_element_set_no": 999,
        "meta_rev_at_epoch": 90961,
        "meta_bstar": 5.6035575e-05,
        "meta_mean_motion_dot": 7.5e-07,
        "meta_mean_motion_ddot": 0,
        "tle_line1": "1 32958U 08026A   25351.40812656  .00000075  00000+0  56036-4 0  9996",
        "tle_line2": "2 32958  98.6701 290.8366 0007741 295.5616  64.4760 14.19516118909616"
      },
      "geometry": {
        "type": "Point",
        "coordinates": [
          -86.78340012635918,
          63.94450280084209
        ]
      }
    },
    {
      "type": "Feature",
      "properties": {
        "norad_id": 35491,
        "name": "GOES 14",
        "group": "weather",
        "lat": -1.091273800508784,
        "lon": -31.695157746486245,
        "alt_km": 35834.53836919644,
        "timestamp": "2025-12-17T23:38:06.507085+00:00",
        "meta_object_name": "GOES 14",
        "meta_object_id": "2009-033A",
        "meta_epoch": "2025-12-17T12:06:06.534720",
        "meta_mean_motion": 1.00096698,
        "meta_eccentricity": 5.34e-05,
        "meta_inclination": 1.2148,
        "meta_ra_of_asc_node": 85.3519,
        "meta_arg_of_pericenter": 174.4366,
        "meta_mean_anomaly": 255.3546,
        "meta_ephemeris_type": 0,
        "meta_classification_type": "U",
        "meta_norad_cat_id": 35491,
        "meta_element_set_no": 999,
        "meta_rev_at_epoch": 477,
        "meta_bstar": 0,
        "meta_mean_motion_dot": 1e-07,
        "meta_mean_motion_ddot": 0,
        "tle_line1": "1 35491U 09033A   25351.50424230  .00000010  00000+0  00000+0 0  9992",
        "tle_line2": "2 35491   1.2148  85.3519 0000534 174.4366 255.3546  1.00096698  4771"
      },
      "geometry": {
        "type": "Point",
        "coordinates": [
          -31.695157746486245,
          -1.091273800508784
        ]
      }
    },
    {
      "type": "Feature",
      "properties": {
        "norad_id": 35951,
        "name": "DMSP 5D-3 F18 (USA 210)",
        "group": "weather",
        "lat": 49.64877200909815,
        "lon": 158.9676737105404,
        "alt_km": 837.0904885407863,
        "timestamp": "2025-12-17T23:38:06.507097+00:00",
        "meta_object_name": "DMSP 5D-3 F18 (USA 210)",
        "meta_object_id": "2009-057A",
        "meta_epoch": "2025-12-17T12:50:32.902656",
        "meta_mean_motion": 14.14772409,
        "meta_eccentricity": 0.00119577,
        "meta_inclination": 98.8838,
        "meta_ra_of_asc_node": 327.912,
        "meta_arg_of_pericenter": 50.179,
        "meta_mean_anomaly": 310.0434,
        "meta_ephemeris_type": 0,
        "meta_classification_type": "U",
        "meta_norad_cat_id": 35951,
        "meta_element_set_no": 999,
        "meta_rev_at_epoch": 83390,
        "meta_bstar": 0.00015606447,
        "meta_mean_motion_dot": 2.56e-06,
        "meta_mean_motion_ddot": 0,
        "tle_line1": "1 35951U 09057A   25351.53510304  .00000256  00000+0  15606-3 0  9994",
        "tle_line2": "2 35951  98.8838 327.9120 0011957  50.1790 310.0434 14.14772409833905"
      },
      "geometry": {
        "type": "Point",
        "coordinates": [
          158.9676737105404,
          49.64877200909815
        ]
      }
    },
    {
      "type": "Feature",
      "properties": {
        "norad_id": 36411,
        "name": "EWS-G2 (GOES 15)",
        "group": "weather",
        "lat": 0.7002512634010478,
        "lon": 142.68802032438785,
        "alt_km": 35797.920915842304,
        "timestamp": "2025-12-17T23:38:06.507111+00:00",
        "meta_object_name": "EWS-G2 (GOES 15)",
        "meta_object_id": "2010-008A",
        "meta_epoch": "2025-12-17T15:07:16.805568",
        "meta_mean_motion": 1.00270754,
        "meta_eccentricity": 0.00054896,
        "meta_inclination": 0.8255,
        "meta_ra_of_asc_node": 86.0725,
        "meta_arg_of_pericenter": 176.7321,
        "meta_mean_anomaly": 111.8959,
        "meta_ephemeris_type": 0,
        "meta_classification_type": "U",
        "meta_norad_cat_id": 36411,
        "meta_element_set_no": 999,
        "meta_rev_at_epoch": 5781,
        "meta_bstar": 0,
        "meta_mean_motion_dot": 6.2e-07,
        "meta_mean_motion_ddot": 0,
        "tle_line1": "1 36411U 10008A   25351.63005562  .00000062  00000+0  00000+0 0  9993",
        "tle_line2": "2 36411   0.8255  86.0725 0005489 176.7321 111.8959  1.00270754 57819"
      },
      "geometry": {
        "type": "Point",
        "coordinates": [
          142.68802032438785,
          0.7002512634010478
        ]
      }
    }
  ]
}